UNKNOWN                 
1 81438U          26016.08904153  .00002271  00000+0  33370-2 0  9998
2 81438 100.3191 254.2648 0057627 348.8010  11.1839 13.54905530596595
UNKNOWN                 
1 81439U          26016.89671474 -.00000058  00000+0 -15895-4 0  9992
2 81439  67.1606  73.8143 0600543 181.8072 178.0776 12.62637383266331
UNKNOWN                 
1 81449U          26017.60664314  .00031091  00000+0  21510-2 0  9996
2 81449  66.7976 246.8920 0022808  90.5213 269.8537 15.05361663638946
UNKNOWN                 
1 81478U          26019.71706852  .00004113  00000+0  14814-2 0  9990
2 81478  98.9524 297.6011 0144197 248.4536 140.0011 14.28640590628362
UNKNOWN                 
1 81488U          26020.61420780  .00000094  00000+0  19877-3 0  9994
2 81488  99.9991 258.8508 0044030 263.6730 127.2800 13.56531932601905
UNKNOWN                 
1 81497U          26016.49190738  .00002690  00000+0  24402-2 0  9995
2 81497 100.3022 279.4721 0028491 288.7910 251.1398 13.84439356221101
UNKNOWN                 
1 81499U          26020.34585032  .00004984  00000+0  13664-2 0  9997
2 81499  74.0490 148.9524 0002319 273.7150  86.3743 14.47362930488000
UNKNOWN                 
1 81535U          26019.44866152  .00000783  00000+0  33543-3 0  9994
2 81535  98.1980 103.5819 0235225  39.8501 321.9684 14.13530947392724
UNKNOWN                 
1 81536U          26019.36669284  .00000515  00000+0  34132-2 0  9990
2 81536 101.9630 245.8792 0025099 233.7737 308.5448 12.55916782556531
UNKNOWN                 
1 81537U          26020.28149712  .00000446  00000+0  28648-3 0  9992
2 81537  71.0395  29.5094 0074427  94.4825 266.4801 14.07120841625880
UNKNOWN                 
1 81599U          26019.77556583  .00000810  00000+0  15414-2 0  9991
2 81599  67.2914 198.6867 0245879  56.4290 327.0732 13.31499939590143
UNKNOWN                 
1 81605U          26019.49937561  .00000454  00000+0  22465-2 0  9995
2 81605  56.4340 106.5790 0173336 186.8882 172.9658 12.81554420191041
