CCSDS_OMM_VERS = 2.0
CREATION_DATE  = 
ORIGINATOR     = 

OBJECT_NAME    = UNKNOWN
OBJECT_ID      = 
CENTER_NAME    = EARTH
REF_FRAME      = TEME
TIME_SYSTEM    = UTC
MEAN_ELEMENT_THEORY = SGP/SGP4

EPOCH          = 2026-01-16T02:08:13.188192
MEAN_MOTION    = 13.54905530
ECCENTRICITY   = .0057627
INCLINATION    = 100.3191
RA_OF_ASC_NODE = 254.2648
ARG_OF_PERICENTER = 348.8010
MEAN_ANOMALY   = 11.1839

EPHEMERIS_TYPE = 0
CLASSIFICATION_TYPE = U
NORAD_CAT_ID   = 81438
ELEMENT_SET_NO = 999
REV_AT_EPOCH   = 59659
BSTAR          = .3337E-2
MEAN_MOTION_DOT = .2271E-4
MEAN_MOTION_DDOT = 0

CCSDS_OMM_VERS = 2.0
CREATION_DATE  = 
ORIGINATOR     = 

OBJECT_NAME    = UNKNOWN
OBJECT_ID      = 
CENTER_NAME    = EARTH
REF_FRAME      = TEME
TIME_SYSTEM    = UTC
MEAN_ELEMENT_THEORY = SGP/SGP4

EPOCH          = 2026-01-16T21:31:16.153536
MEAN_MOTION    = 12.62637383
ECCENTRICITY   = .0600543
INCLINATION    = 67.1606
RA_OF_ASC_NODE = 73.8143
ARG_OF_PERICENTER = 181.8072
MEAN_ANOMALY   = 178.0776

EPHEMERIS_TYPE = 0
CLASSIFICATION_TYPE = U
NORAD_CAT_ID   = 81439
ELEMENT_SET_NO = 999
REV_AT_EPOCH   = 26633
BSTAR          = -.15895E-4
MEAN_MOTION_DOT = -.58E-6
MEAN_MOTION_DDOT = 0

CCSDS_OMM_VERS = 2.0
CREATION_DATE  = 
ORIGINATOR     = 

OBJECT_NAME    = UNKNOWN
OBJECT_ID      = 
CENTER_NAME    = EARTH
REF_FRAME      = TEME
TIME_SYSTEM    = UTC
MEAN_ELEMENT_THEORY = SGP/SGP4

EPOCH          = 2026-01-17T14:33:33.967296
MEAN_MOTION    = 15.05361663
ECCENTRICITY   = .0022808
INCLINATION    = 66.7976
RA_OF_ASC_NODE = 246.8920
ARG_OF_PERICENTER = 90.5213
MEAN_ANOMALY   = 269.8537

EPHEMERIS_TYPE = 0
CLASSIFICATION_TYPE = U
NORAD_CAT_ID   = 81449
ELEMENT_SET_NO = 999
REV_AT_EPOCH   = 63894
BSTAR          = .2151E-2
MEAN_MOTION_DOT = .31091E-3
MEAN_MOTION_DDOT = 0

CCSDS_OMM_VERS = 2.0
CREATION_DATE  = 
ORIGINATOR     = 

OBJECT_NAME    = UNKNOWN
OBJECT_ID      = 
CENTER_NAME    = EARTH
REF_FRAME      = TEME
TIME_SYSTEM    = UTC
MEAN_ELEMENT_THEORY = SGP/SGP4

EPOCH          = 2026-01-19T17:12:34.720128
MEAN_MOTION    = 14.28640590
ECCENTRICITY   = .0144197
INCLINATION    = 98.9524
RA_OF_ASC_NODE = 297.6011
ARG_OF_PERICENTER = 248.4536
MEAN_ANOMALY   = 140.0011

EPHEMERIS_TYPE = 0
CLASSIFICATION_TYPE = U
NORAD_CAT_ID   = 81478
ELEMENT_SET_NO = 999
REV_AT_EPOCH   = 62836
BSTAR          = .14814E-2
MEAN_MOTION_DOT = .4113E-4
MEAN_MOTION_DDOT = 0

CCSDS_OMM_VERS = 2.0
CREATION_DATE  = 
ORIGINATOR     = 

OBJECT_NAME    = UNKNOWN
OBJECT_ID      = 
CENTER_NAME    = EARTH
REF_FRAME      = TEME
TIME_SYSTEM    = UTC
MEAN_ELEMENT_THEORY = SGP/SGP4

EPOCH          = 2026-01-20T14:44:27.553920
MEAN_MOTION    = 13.56531932
ECCENTRICITY   = .004403
INCLINATION    = 99.9991
RA_OF_ASC_NODE = 258.8508
ARG_OF_PERICENTER = 263.6730
MEAN_ANOMALY   = 127.2800

EPHEMERIS_TYPE = 0
CLASSIFICATION_TYPE = U
NORAD_CAT_ID   = 81488
ELEMENT_SET_NO = 999
REV_AT_EPOCH   = 60190
BSTAR          = .19877E-3
MEAN_MOTION_DOT = .94E-6
MEAN_MOTION_DDOT = 0

CCSDS_OMM_VERS = 2.0
CREATION_DATE  = 
ORIGINATOR     = 

OBJECT_NAME    = UNKNOWN
OBJECT_ID      = 
CENTER_NAME    = EARTH
REF_FRAME      = TEME
TIME_SYSTEM    = UTC
MEAN_ELEMENT_THEORY = SGP/SGP4

EPOCH          = 2026-01-16T11:48:20.797632
MEAN_MOTION    = 13.84439356
ECCENTRICITY   = .0028491
INCLINATION    = 100.3022
RA_OF_ASC_NODE = 279.4721
ARG_OF_PERICENTER = 288.7910
MEAN_ANOMALY   = 251.1398

EPHEMERIS_TYPE = 0
CLASSIFICATION_TYPE = U
NORAD_CAT_ID   = 81497
ELEMENT_SET_NO = 999
REV_AT_EPOCH   = 22110
BSTAR          = .24402E-2
MEAN_MOTION_DOT = .269E-4
MEAN_MOTION_DDOT = 0

CCSDS_OMM_VERS = 2.0
CREATION_DATE  = 
ORIGINATOR     = 

OBJECT_NAME    = UNKNOWN
OBJECT_ID      = 
CENTER_NAME    = EARTH
REF_FRAME      = TEME
TIME_SYSTEM    = UTC
MEAN_ELEMENT_THEORY = SGP/SGP4

EPOCH          = 2026-01-20T08:18:01.467648
MEAN_MOTION    = 14.47362930
ECCENTRICITY   = .0002319
INCLINATION    = 74.0490
RA_OF_ASC_NODE = 148.9524
ARG_OF_PERICENTER = 273.7150
MEAN_ANOMALY   = 86.3743

EPHEMERIS_TYPE = 0
CLASSIFICATION_TYPE = U
NORAD_CAT_ID   = 81499
ELEMENT_SET_NO = 999
REV_AT_EPOCH   = 48800
BSTAR          = .13664E-2
MEAN_MOTION_DOT = .4984E-4
MEAN_MOTION_DDOT = 0

CCSDS_OMM_VERS = 2.0
CREATION_DATE  = 
ORIGINATOR     = 

OBJECT_NAME    = UNKNOWN
OBJECT_ID      = 
CENTER_NAME    = EARTH
REF_FRAME      = TEME
TIME_SYSTEM    = UTC
MEAN_ELEMENT_THEORY = SGP/SGP4

EPOCH          = 2026-01-19T10:46:04.355328
MEAN_MOTION    = 14.13530947
ECCENTRICITY   = .0235225
INCLINATION    = 98.1980
RA_OF_ASC_NODE = 103.5819
ARG_OF_PERICENTER = 39.8501
MEAN_ANOMALY   = 321.9684

EPHEMERIS_TYPE = 0
CLASSIFICATION_TYPE = U
NORAD_CAT_ID   = 81535
ELEMENT_SET_NO = 999
REV_AT_EPOCH   = 39272
BSTAR          = .33543E-3
MEAN_MOTION_DOT = .783E-5
MEAN_MOTION_DDOT = 0

CCSDS_OMM_VERS = 2.0
CREATION_DATE  = 
ORIGINATOR     = 

OBJECT_NAME    = UNKNOWN
OBJECT_ID      = 
CENTER_NAME    = EARTH
REF_FRAME      = TEME
TIME_SYSTEM    = UTC
MEAN_ELEMENT_THEORY = SGP/SGP4

EPOCH          = 2026-01-19T08:48:02.261376
MEAN_MOTION    = 12.55916782
ECCENTRICITY   = .0025099
INCLINATION    = 101.9630
RA_OF_ASC_NODE = 245.8792
ARG_OF_PERICENTER = 233.7737
MEAN_ANOMALY   = 308.5448

EPHEMERIS_TYPE = 0
CLASSIFICATION_TYPE = U
NORAD_CAT_ID   = 81536
ELEMENT_SET_NO = 999
REV_AT_EPOCH   = 55653
BSTAR          = .34132E-2
MEAN_MOTION_DOT = .515E-5
MEAN_MOTION_DDOT = 0

CCSDS_OMM_VERS = 2.0
CREATION_DATE  = 
ORIGINATOR     = 

OBJECT_NAME    = UNKNOWN
OBJECT_ID      = 
CENTER_NAME    = EARTH
REF_FRAME      = TEME
TIME_SYSTEM    = UTC
MEAN_ELEMENT_THEORY = SGP/SGP4

EPOCH          = 2026-01-20T06:45:21.351168
MEAN_MOTION    = 14.07120841
ECCENTRICITY   = .0074427
INCLINATION    = 71.0395
RA_OF_ASC_NODE = 29.5094
ARG_OF_PERICENTER = 94.4825
MEAN_ANOMALY   = 266.4801

EPHEMERIS_TYPE = 0
CLASSIFICATION_TYPE = U
NORAD_CAT_ID   = 81537
ELEMENT_SET_NO = 999
REV_AT_EPOCH   = 62588
BSTAR          = .28648E-3
MEAN_MOTION_DOT = .446E-5
MEAN_MOTION_DDOT = 0

CCSDS_OMM_VERS = 2.0
CREATION_DATE  = 
ORIGINATOR     = 

OBJECT_NAME    = UNKNOWN
OBJECT_ID      = 
CENTER_NAME    = EARTH
REF_FRAME      = TEME
TIME_SYSTEM    = UTC
MEAN_ELEMENT_THEORY = SGP/SGP4

EPOCH          = 2026-01-19T18:36:48.887712
MEAN_MOTION    = 13.31499939
ECCENTRICITY   = .0245879
INCLINATION    = 67.2914
RA_OF_ASC_NODE = 198.6867
ARG_OF_PERICENTER = 56.4290
MEAN_ANOMALY   = 327.0732

EPHEMERIS_TYPE = 0
CLASSIFICATION_TYPE = U
NORAD_CAT_ID   = 81599
ELEMENT_SET_NO = 999
REV_AT_EPOCH   = 59014
BSTAR          = .15414E-2
MEAN_MOTION_DOT = .81E-5
MEAN_MOTION_DDOT = 0

CCSDS_OMM_VERS = 2.0
CREATION_DATE  = 
ORIGINATOR     = 

OBJECT_NAME    = UNKNOWN
OBJECT_ID      = 
CENTER_NAME    = EARTH
REF_FRAME      = TEME
TIME_SYSTEM    = UTC
MEAN_ELEMENT_THEORY = SGP/SGP4

EPOCH          = 2026-01-19T11:59:06.052704
MEAN_MOTION    = 12.81554420
ECCENTRICITY   = .0173336
INCLINATION    = 56.4340
RA_OF_ASC_NODE = 106.5790
ARG_OF_PERICENTER = 186.8882
MEAN_ANOMALY   = 172.9658

EPHEMERIS_TYPE = 0
CLASSIFICATION_TYPE = U
NORAD_CAT_ID   = 81605
ELEMENT_SET_NO = 999
REV_AT_EPOCH   = 19104
BSTAR          = .22465E-2
MEAN_MOTION_DOT = .454E-5
MEAN_MOTION_DDOT = 0

